[{"OBJECT_NAME":"ONEWEB-0401","OBJECT_ID":"2021-132N","EPOCH":"2026-03-09T17:32:35.689632","MEAN_MOTION":13.18686209,"ECCENTRICITY":0.00016239,"INCLINATION":87.9255,"RA_OF_ASC_NODE":355.1905,"ARG_OF_PERICENTER":82.3998,"MEAN_ANOMALY":277.7318,"EPHEMERIS_TYPE":0,"CLASSIFICATION_TYPE":"U","NORAD_CAT_ID":50481,"ELEMENT_SET_NO":999,"REV_AT_EPOCH":20850,"BSTAR":-0.00034064984,"MEAN_MOTION_DOT":-1.21e-6,"MEAN_MOTION_DDOT":0},{"OBJECT_NAME":"THORAD AGENA D DEB","OBJECT_ID":"1970-025JN","EPOCH":"2026-03-09T18:21:50.648256","MEAN_MOTION":13.56832424,"ECCENTRICITY":0.01865745,"INCLINATION":99.308,"RA_OF_ASC_NODE":164.2925,"ARG_OF_PERICENTER":329.8722,"MEAN_ANOMALY":158.5514,"EPHEMERIS_TYPE":0,"CLASSIFICATION_TYPE":"U","NORAD_CAT_ID":5129,"ELEMENT_SET_NO":999,"REV_AT_EPOCH":72015,"BSTAR":0.0023447337,"MEAN_MOTION_DOT":1.818e-5,"MEAN_MOTION_DDOT":0}]
